IRIDIUM 106             
1 41917U 17003A   25362.51146176 -.00000021  00000+0 -14497-4 0  9995
2 41917  86.4000 159.8694 0002343  92.7768 267.3696 14.34217293468749
IRIDIUM 103             
1 41918U 17003B   25362.84761782  .00000310  00000+0  10376-3 0  9998
2 41918  86.3998 159.6295 0001999 108.3281 251.8132 14.34218804468810
IRIDIUM 109             
1 41919U 17003C   25362.50511813  .00000133  00000+0  40476-4 0  9998
2 41919  86.3999 159.8290 0001999  95.3427 264.7997 14.34218108468736
IRIDIUM 102             
1 41920U 17003D   25362.82224749  .00000090  00000+0  25040-4 0  9996
2 41920  86.3996 159.6238 0001935  90.8226 269.3191 14.34217505468863
IRIDIUM 105             
1 41921U 17003E   25362.79298655  .00000436  00000+0  14858-3 0  9998
2 41921  86.3991 128.1270 0002002  97.4596 262.6827 14.34220391470711
IRIDIUM 104             
1 41922U 17003F   25362.83493204  .00000009  00000+0 -37530-5 0  9992
2 41922  86.4002 159.6586 0001597  99.4462 260.6914 14.34217534468859
IRIDIUM 114             
1 41923U 17003G   25362.70173807  .00000456  00000+0  15571-3 0  9997
2 41923  86.3997 159.6978 0001882  96.2002 263.9409 14.34217641468819
IRIDIUM 108             
1 41924U 17003H   25362.79979718 -.00000029  00000+0 -17442-4 0  9990
2 41924  86.3987 128.0131 0001937  90.9179 269.2239 14.34217285470689
